{
  "type": "FeatureCollection",
  "name": "conflicting_observations_ward_pilot",
  "crs": {
    "type": "name",
    "properties": {
      "name": "urn:ogc:def:crs:OGC:1.3:CRS84"
    }
  },
  "features": [
    {
      "type": "Feature",
      "geometry": {
        "type": "Polygon",
        "coordinates": [
          [
            [77.5945, 12.9715],
            [77.5955, 12.9715],
            [77.5955, 12.9725],
            [77.5945, 12.9725],
            [77.5945, 12.9715]
          ]
        ]
      },
      "properties": {
        "ulpin": "INMH0234999",
        "type": "building",
        "building_seq": 1,
        "floor_seq": 0,
        "unit_seq": 0,
        "height": 18.0,
        "unit": "m",
        "floor_count": 5,
        "confidence": 0.90,
        "survey_date": "2026-03-01T10:00:00Z",
        "source_id": "MUNICIPAL_DRONE_SURVEY_2026"
      }
    },
    {
      "type": "Feature",
      "geometry": {
        "type": "Polygon",
        "coordinates": [
          [
            [77.5945, 12.9715],
            [77.5955, 12.9715],
            [77.5955, 12.9725],
            [77.5945, 12.9725],
            [77.5945, 12.9715]
          ]
        ]
      },
      "properties": {
        "ulpin": "INMH0234999",
        "type": "building",
        "building_seq": 1,
        "floor_seq": 0,
        "unit_seq": 0,
        "height": 38.0,
        "unit": "m",
        "floor_count": 12,
        "confidence": 0.82,
        "survey_date": "2026-03-10T14:00:00Z",
        "source_id": "FIELD_RADAR_ALTIMETRY_2026"
      }
    }
  ]
}
